[{"OBJECT_NAME":"GJZ 02","OBJECT_ID":"2024-238B","EPOCH":"2026-03-09T22:57:25.494912","MEAN_MOTION":13.75187021,"ECCENTRICITY":0.00076974,"INCLINATION":59.9175,"RA_OF_ASC_NODE":191.0816,"ARG_OF_PERICENTER":96.9704,"MEAN_ANOMALY":263.2179,"EPHEMERIS_TYPE":0,"CLASSIFICATION_TYPE":"U","NORAD_CAT_ID":62291,"ELEMENT_SET_NO":999,"REV_AT_EPOCH":6263,"BSTAR":0.00012934225,"MEAN_MOTION_DOT":5.0e-8,"MEAN_MOTION_DDOT":0},{"OBJECT_NAME":"CZ-6A DEB","OBJECT_ID":"2022-151AGH","EPOCH":"2026-03-05T20:14:34.114560","MEAN_MOTION":13.819261,"ECCENTRICITY":0.01789119,"INCLINATION":98.9448,"RA_OF_ASC_NODE":18.2773,"ARG_OF_PERICENTER":56.4692,"MEAN_ANOMALY":305.341,"EPHEMERIS_TYPE":0,"CLASSIFICATION_TYPE":"U","NORAD_CAT_ID":56657,"ELEMENT_SET_NO":999,"REV_AT_EPOCH":14938,"BSTAR":0.00064210721,"MEAN_MOTION_DOT":7.38e-6,"MEAN_MOTION_DDOT":0}]
